ONEWEB-0158             
1 48054U 21025N   26009.45039149 -.00000026  00000+0 -10578-3 0  9996
2 48054  87.8999 351.7556 0001800  74.6299 285.5029 13.13470586232793
ONEWEB-0157             
1 48055U 21025P   26009.47578747  .00000364  00000+0  96118-3 0  9998
2 48055  87.8998 351.7564 0001483  95.7530 264.3768 13.13469572232733
ONEWEB-0162             
1 48056U 21025Q   26009.45194559  .00000053  00000+0  11029-3 0  9995
2 48056  87.9001 351.7641 0001857  89.1486 270.9856 13.13471131232700
ONEWEB-0155             
1 48057U 21025R   26009.45884928  .00000152  00000+0  38152-3 0  9998
2 48057  87.8993 351.7667 0001540  85.2376 274.8929 13.13470958232847
ONEWEB-0149             
1 48058U 21025S   26009.63322000  .00000323  00000+0  84885-3 0  9991
2 48058  87.8998 351.7257 0001924  89.5876 270.5473 13.13469168232675
ONEWEB-0148             
1 48059U 21025T   26009.67215204 -.00000234  00000+0 -67477-3 0  9994
2 48059  87.8992 351.7356 0002110 100.1855 259.9512 13.13469417232802
ONEWEB-0160             
1 48060U 21025U   26009.46055144  .00000228  00000+0  59053-3 0  9990
2 48060  87.8991 351.7751 0002267  68.2788 291.8582 13.13470470232728
ONEWEB-0163             
1 48061U 21025V   26009.44531134 -.00000099  00000+0 -30594-3 0  9994
2 48061  87.8998 351.7665 0001505  92.2350 267.8952 13.13471137232844
